IRIDIUM 126             
1 42809U 17039G   25197.35276384  .00000204  00000+0  65934-4 0  9991
2 42809  86.4001 134.0463 0002392  80.0964 280.0502 14.34218130421829
IRIDIUM 124             
1 42810U 17039H   25196.93649286  .00000248  00000+0  67590-4 0  9999
2 42810  86.4462  70.9456 0002019  87.1000 273.0432 14.43276768426614
IRIDIUM 128             
1 42811U 17039J   25197.20396620  .00000062  00000+0  14925-4 0  9990
2 42811  86.4008 165.5819 0001937  88.2472 271.8945 14.34217822421827
IRIDIUM 121             
1 42812U 17039K   25196.88341267  .00000115  00000+0  33928-4 0  9994
2 42812  86.4001 134.2676 0002196  86.9725 273.1722 14.34218570421626
IRIDIUM 133             
1 42955U 17061A   25197.44498549  .00000059  00000+0  13906-4 0  9997
2 42955  86.4010 165.5905 0002218  84.7385 275.4064 14.34217783406654
IRIDIUM 100             
1 42956U 17061B   25196.95026137  .00000056  00000+0  12998-4 0  9990
2 42956  86.4008 165.7236 0002164  81.9705 278.1736 14.34217276406581
IRIDIUM 122             
1 42957U 17061C   25196.91855042  .00000037  00000+0  62957-5 0  9992
2 42957  86.4007 165.7361 0002263  83.9776 276.1677 14.34217522406586
IRIDIUM 129             
1 42958U 17061D   25197.43230121  .00000040  00000+0  72896-5 0  9993
2 42958  86.4010 165.5849 0002710  87.2572 272.8934 14.34217752406672
